{"type": "FeatureCollection", "features": [ {"type": "Feature", "properties": {"norad_id": 31074, "name": "FENGYUN 1C DEB", "group": "fengyun-1c-debris", "lat": -49.148734494504716, "lon": -88.08510318781488, "alt_km": 805.1669354753903, "timestamp": "2025-12-12T09:49:09.012234+00:00", "meta": {"OBJECT_NAME": "FENGYUN 1C DEB", "OBJECT_ID": "1999-025BFU", "EPOCH": "2025-12-11T05:11:16.123776", "MEAN_MOTION": 14.14217181, "ECCENTRICITY": 0.00879903, "INCLINATION": 98.9586, "RA_OF_ASC_NODE": 260.2083, "ARG_OF_PERICENTER": 270.2356, "MEAN_ANOMALY": 88.8734, "EPHEMERIS_TYPE": 0, "CLASSIFICATION_TYPE": "U", "NORAD_CAT_ID": 31074, "ELEMENT_SET_NO": 999, "REV_AT_EPOCH": 95558, "BSTAR": 0.0044804793, "MEAN_MOTION_DOT": 8.834e-05, "MEAN_MOTION_DDOT": 0}, "tle": {"line1": "1 31074U 99025BFU 25345.21615884  .00008834  00000+0  44805-2 0  9999", "line2": "2 31074  98.9586 260.2083 0087990 270.2356  88.8734 14.14217181955581"}}, "geometry": {"type": "Point", "coordinates": [-88.08510318781488, -49.148734494504716]}}, {"type": "Feature", "properties": {"norad_id": 31078, "name": "FENGYUN 1C DEB", "group": "fengyun-1c-debris", "lat": -80.70361735351754, "lon": 119.36132957207326, "alt_km": 870.785282353203, "timestamp": "2025-12-12T09:49:09.012244+00:00", "meta": {"OBJECT_NAME": "FENGYUN 1C DEB", "OBJECT_ID": "1999-025BFY", "EPOCH": "2025-12-09T23:42:47.304000", "MEAN_MOTION": 14.22064781, "ECCENTRICITY": 0.01169827, "INCLINATION": 98.8683, "RA_OF_ASC_NODE": 44.4114, "ARG_OF_PERICENTER": 156.7857, "MEAN_ANOMALY": 327.2169, "EPHEMERIS_TYPE": 0, "CLASSIFICATION_TYPE": "U", "NORAD_CAT_ID": 31078, "ELEMENT_SET_NO": 999, "REV_AT_EPOCH": 96853, "BSTAR": 0.00082190523, "MEAN_MOTION_DOT": 1.905e-05, "MEAN_MOTION_DDOT": 0}, "tle": {"line1": "1 31078U 99025BFY 25343.98804750  .00001905  00000+0  82191-3 0  9990", "line2": "2 31078  98.8683  44.4114 0116982 156.7857 327.2169 14.22064781968533"}}, "geometry": {"type": "Point", "coordinates": [119.36132957207326, -80.70361735351754]}}, {"type": "Feature", "properties": {"norad_id": 31081, "name": "FENGYUN 1C DEB", "group": "fengyun-1c-debris", "lat": 63.589047924876205, "lon": -15.255527913279579, "alt_km": 899.2607712356794, "timestamp": "2025-12-12T09:49:09.012255+00:00", "meta": {"OBJECT_NAME": "FENGYUN 1C DEB", "OBJECT_ID": "1999-025BGB", "EPOCH": "2025-12-10T19:04:52.857408", "MEAN_MOTION": 14.06297892, "ECCENTRICITY": 0.00473375, "INCLINATION": 98.7706, "RA_OF_ASC_NODE": 1.2911, "ARG_OF_PERICENTER": 236.5461, "MEAN_ANOMALY": 301.6086, "EPHEMERIS_TYPE": 0, "CLASSIFICATION_TYPE": "U", "NORAD_CAT_ID": 31081, "ELEMENT_SET_NO": 999, "REV_AT_EPOCH": 96433, "BSTAR": 0.00019267461, "MEAN_MOTION_DOT": 2.78e-06, "MEAN_MOTION_DDOT": 0}, "tle": {"line1": "1 31081U 99025BGB 25344.79505622  .00000278  00000+0  19267-3 0  9996", "line2": "2 31081  98.7706   1.2911 0047337 236.5461 301.6086 14.06297892964334"}}, "geometry": {"type": "Point", "coordinates": [-15.255527913279579, 63.589047924876205]}}, {"type": "Feature", "properties": {"norad_id": 31083, "name": "FENGYUN 1C DEB", "group": "fengyun-1c-debris", "lat": 48.5026695676254, "lon": 93.93613809960077, "alt_km": 687.1100178828792, "timestamp": "2025-12-12T09:49:09.012266+00:00", "meta": {"OBJECT_NAME": "FENGYUN 1C DEB", "OBJECT_ID": "1999-025BGD", "EPOCH": "2025-12-12T03:34:58.052928", "MEAN_MOTION": 14.62007699, "ECCENTRICITY": 0.003119, "INCLINATION": 98.6459, "RA_OF_ASC_NODE": 103.5684, "ARG_OF_PERICENTER": 307.3205, "MEAN_ANOMALY": 174.8098, "EPHEMERIS_TYPE": 0, "CLASSIFICATION_TYPE": "U", "NORAD_CAT_ID": 31083, "ELEMENT_SET_NO": 999, "REV_AT_EPOCH": 97701, "BSTAR": 0.0038753, "MEAN_MOTION_DOT": 0.00019567, "MEAN_MOTION_DDOT": 0}, "tle": {"line1": "1 31083U 99025BGD 25346.14928302  .00019567  00000+0  38753-2 0  9994", "line2": "2 31083  98.6459 103.5684 0031190 307.3205 174.8098 14.62007699977014"}}, "geometry": {"type": "Point", "coordinates": [93.93613809960077, 48.5026695676254]}}, {"type": "Feature", "properties": {"norad_id": 31085, "name": "FENGYUN 1C DEB", "group": "fengyun-1c-debris", "lat": -29.961197692680003, "lon": 1.9523335981568646, "alt_km": 858.031050926932, "timestamp": "2025-12-12T09:49:09.012277+00:00", "meta": {"OBJECT_NAME": "FENGYUN 1C DEB", "OBJECT_ID": "1999-025BGF", "EPOCH": "2025-12-11T01:40:26.003424", "MEAN_MOTION": 14.30307706, "ECCENTRICITY": 0.00873969, "INCLINATION": 98.9844, "RA_OF_ASC_NODE": 185.8023, "ARG_OF_PERICENTER": 22.9067, "MEAN_ANOMALY": 134.7993, "EPHEMERIS_TYPE": 0, "CLASSIFICATION_TYPE": "U", "NORAD_CAT_ID": 31085, "ELEMENT_SET_NO": 999, "REV_AT_EPOCH": 97692, "BSTAR": 0.00014789144, "MEAN_MOTION_DOT": 3.53e-06, "MEAN_MOTION_DDOT": 0}, "tle": {"line1": "1 31085U 99025BGF 25345.06974541  .00000353  00000+0  14789-3 0  9999", "line2": "2 31085  98.9844 185.8023 0087396  22.9067 134.7993 14.30307706976927"}}, "geometry": {"type": "Point", "coordinates": [1.9523335981568646, -29.961197692680003]}}, {"type": "Feature", "properties": {"norad_id": 31087, "name": "FENGYUN 1C DEB", "group": "fengyun-1c-debris", "lat": -47.014530738066, "lon": 15.61733184112269, "alt_km": 584.8473560315424, "timestamp": "2025-12-12T09:49:09.012288+00:00", "meta": {"OBJECT_NAME": "FENGYUN 1C DEB", "OBJECT_ID": "1999-025BGH", "EPOCH": "2025-12-12T00:18:16.429824", "MEAN_MOTION": 14.60299004, "ECCENTRICITY": 0.0171913, "INCLINATION": 98.1023, "RA_OF_ASC_NODE": 6.4378, "ARG_OF_PERICENTER": 293.2204, "MEAN_ANOMALY": 95.6588, "EPHEMERIS_TYPE": 0, "CLASSIFICATION_TYPE": "U", "NORAD_CAT_ID": 31087, "ELEMENT_SET_NO": 999, "REV_AT_EPOCH": 98759, "BSTAR": 0.0013295, "MEAN_MOTION_DOT": 7.86e-05, "MEAN_MOTION_DDOT": 0}, "tle": {"line1": "1 31087U 99025BGH 25346.01269016  .00007860  00000+0  13295-2 0  9991", "line2": "2 31087  98.1023   6.4378 0171913 293.2204  95.6588 14.60299004987590"}}, "geometry": {"type": "Point", "coordinates": [15.61733184112269, -47.014530738066]}}, {"type": "Feature", "properties": {"norad_id": 31088, "name": "FENGYUN 1C DEB", "group": "fengyun-1c-debris", "lat": -70.87069876113272, "lon": -162.00124703465792, "alt_km": 823.6336267767401, "timestamp": "2025-12-12T09:49:09.012299+00:00", "meta": {"OBJECT_NAME": "FENGYUN 1C DEB", "OBJECT_ID": "1999-025BGJ", "EPOCH": "2025-12-10T23:35:54.153024", "MEAN_MOTION": 14.28673975, "ECCENTRICITY": 0.0028747, "INCLINATION": 99.411, "RA_OF_ASC_NODE": 45.0274, "ARG_OF_PERICENTER": 66.9057, "MEAN_ANOMALY": 56.8691, "EPHEMERIS_TYPE": 0, "CLASSIFICATION_TYPE": "U", "NORAD_CAT_ID": 31088, "ELEMENT_SET_NO": 999, "REV_AT_EPOCH": 96524, "BSTAR": 0.0023648, "MEAN_MOTION_DOT": 5.925e-05, "MEAN_MOTION_DDOT": 0}, "tle": {"line1": "1 31088U 99025BGJ 25344.98326566  .00005925  00000+0  23648-2 0  9993", "line2": "2 31088  99.4110  45.0274 0028747  66.9057  56.8691 14.28673975965242"}}, "geometry": {"type": "Point", "coordinates": [-162.00124703465792, -70.87069876113272]}}, {"type": "Feature", "properties": {"norad_id": 31089, "name": "FENGYUN 1C DEB", "group": "fengyun-1c-debris", "lat": 35.74495183269591, "lon": 121.96378448083925, "alt_km": 1082.2121674554637, "timestamp": "2025-12-12T09:49:09.012309+00:00", "meta": {"OBJECT_NAME": "FENGYUN 1C DEB", "OBJECT_ID": "1999-025BGK", "EPOCH": "2025-12-07T21:25:32.147616", "MEAN_MOTION": 13.88305057, "ECCENTRICITY": 0.02058957, "INCLINATION": 98.9488, "RA_OF_ASC_NODE": 124.1407, "ARG_OF_PERICENTER": 224.7678, "MEAN_ANOMALY": 291.3696, "EPHEMERIS_TYPE": 0, "CLASSIFICATION_TYPE": "U", "NORAD_CAT_ID": 31089, "ELEMENT_SET_NO": 999, "REV_AT_EPOCH": 67992, "BSTAR": 0.0012224374, "MEAN_MOTION_DOT": 1.69e-05, "MEAN_MOTION_DDOT": 0}, "tle": {"line1": "1 31089U 99025BGK 25341.89273319  .00001690  00000+0  12224-2 0  9991", "line2": "2 31089  98.9488 124.1407 0205895 224.7678 291.3696 13.88305057679922"}}, "geometry": {"type": "Point", "coordinates": [121.96378448083925, 35.74495183269591]}}, {"type": "Feature", "properties": {"norad_id": 31090, "name": "FENGYUN 1C DEB", "group": "fengyun-1c-debris", "lat": -59.40932769036989, "lon": 105.89431207263704, "alt_km": 509.6106833365502, "timestamp": "2025-12-12T09:49:09.012320+00:00", "meta": {"OBJECT_NAME": "FENGYUN 1C DEB", "OBJECT_ID": "1999-025BGL", "EPOCH": "2025-12-11T05:53:35.054304", "MEAN_MOTION": 15.33134281, "ECCENTRICITY": 0.0055666, "INCLINATION": 98.9821, "RA_OF_ASC_NODE": 88.9633, "ARG_OF_PERICENTER": 137.8402, "MEAN_ANOMALY": 222.7137, "EPHEMERIS_TYPE": 0, "CLASSIFICATION_TYPE": "U", "NORAD_CAT_ID": 31090, "ELEMENT_SET_NO": 999, "REV_AT_EPOCH": 815, "BSTAR": 0.0031830871, "MEAN_MOTION_DOT": 0.00108298, "MEAN_MOTION_DDOT": 0}, "tle": {"line1": "1 31090U 99025BGL 25345.24554461  .00108298  00000+0  31831-2 0  9993", "line2": "2 31090  98.9821  88.9633 0055666 137.8402 222.7137 15.33134281  8151"}}, "geometry": {"type": "Point", "coordinates": [105.89431207263704, -59.40932769036989]}}, {"type": "Feature", "properties": {"norad_id": 31091, "name": "FENGYUN 1C DEB", "group": "fengyun-1c-debris", "lat": -36.95271956962427, "lon": -29.49373457991417, "alt_km": 848.6650512452898, "timestamp": "2025-12-12T09:49:09.012330+00:00", "meta": {"OBJECT_NAME": "FENGYUN 1C DEB", "OBJECT_ID": "1999-025BGM", "EPOCH": "2025-12-10T04:47:50.827776", "MEAN_MOTION": 13.54141266, "ECCENTRICITY": 0.02908089, "INCLINATION": 99.2244, "RA_OF_ASC_NODE": 321.4211, "ARG_OF_PERICENTER": 335.4456, "MEAN_ANOMALY": 23.3063, "EPHEMERIS_TYPE": 0, "CLASSIFICATION_TYPE": "U", "NORAD_CAT_ID": 31091, "ELEMENT_SET_NO": 999, "REV_AT_EPOCH": 61605, "BSTAR": 0.0012568098, "MEAN_MOTION_DOT": 1.075e-05, "MEAN_MOTION_DDOT": 0}, "tle": {"line1": "1 31091U 99025BGM 25344.19989384  .00001075  00000+0  12568-2 0  9994", "line2": "2 31091  99.2244 321.4211 0290808 335.4456  23.3063 13.54141266616055"}}, "geometry": {"type": "Point", "coordinates": [-29.49373457991417, -36.95271956962427]}}]}